start=new Date('2021-10-17T00:00:00.000Z').valueOf();
sats=[{"RA_OF_ASC_NODE":"108.7760","INCLINATION":"53.0546","PERIOD":"95.593","OBJECT_NAME":"STARLINK-2498","DECAY_DATE":null,"BSTAR":"-0.00004289600000","OBJECT_ID":"2021-036BC","SITE":"AFETR","CENTER_NAME":"EARTH","REV_AT_EPOCH":"2605","NORAD_CAT_ID":"48326","MEAN_MOTION_DDOT":"0.0000000000000","FILE":"3166610","SEMIMAJOR_AXIS":"6925.386","TIME_SYSTEM":"UTC","EPHEMERIS_TYPE":"0","RCS_SIZE":"LARGE","REF_FRAME":"TEME","MEAN_ANOMALY":"289.0325","OBJECT_TYPE":"PAYLOAD","LAUNCH_DATE":"2021-04-29","EPOCH":"2021-10-16T05:36:36.029376","TLE_LINE2":"2 48326  53.0546 108.7760 0001849  71.0865 289.0325 15.06387837 26056","GP_ID":"187356808","ECCENTRICITY":"0.00018490","CLASSIFICATION_TYPE":"U","ELEMENT_SET_NO":"999","PERIAPSIS":"545.970","MEAN_MOTION_DOT":"-0.00000920","MEAN_MOTION":"15.06387837","TLE_LINE1":"1 48326U 21036BC  21289.23375034 -.00000920  00000-0 -42896-4 0  9990","COUNTRY_CODE":"US","ARG_OF_PERICENTER":"71.0865","MEAN_ELEMENT_THEORY":"SGP4","APOAPSIS":"548.531"},{"MEAN_MOTION_DOT":"0.00000823","PERIAPSIS":"546.189","APOAPSIS":"548.258","MEAN_ELEMENT_THEORY":"SGP4","ARG_OF_PERICENTER":"82.9631","TLE_LINE1":"1 48327U 21036BD  21289.23004163  .00000823  00000-0  74143-4 0  9993","COUNTRY_CODE":"US","MEAN_MOTION":"15.06396663","LAUNCH_DATE":"2021-04-29","OBJECT_TYPE":"PAYLOAD","MEAN_ANOMALY":"277.1528","REF_FRAME":"TEME","ELEMENT_SET_NO":"999","CLASSIFICATION_TYPE":"U","ECCENTRICITY":"0.00014940","GP_ID":"187358059","TLE_LINE2":"2 48327  53.0546 108.7914 0001494  82.9631 277.1528 15.06396663 26056","EPOCH":"2021-10-16T05:31:15.596832","SEMIMAJOR_AXIS":"6925.359","FILE":"3166610","MEAN_MOTION_DDOT":"0.0000000000000","NORAD_CAT_ID":"48327","REV_AT_EPOCH":"2605","EPHEMERIS_TYPE":"0","RCS_SIZE":"LARGE","TIME_SYSTEM":"UTC","DECAY_DATE":null,"PERIOD":"95.592","OBJECT_NAME":"STARLINK-2502","INCLINATION":"53.0546","RA_OF_ASC_NODE":"108.7914","CENTER_NAME":"EARTH","SITE":"AFETR","OBJECT_ID":"2021-036BD","BSTAR":"0.00007414300000"},{"RCS_SIZE":"LARGE","EPHEMERIS_TYPE":"0","TIME_SYSTEM":"UTC","SEMIMAJOR_AXIS":"6925.376","FILE":"3166610","MEAN_MOTION_DDOT":"0.0000000000000","REV_AT_EPOCH":"2605","NORAD_CAT_ID":"48328","CENTER_NAME":"EARTH","SITE":"AFETR","OBJECT_ID":"2021-036BE","BSTAR":"0.00001869300000","DECAY_DATE":null,"PERIOD":"95.593","OBJECT_NAME":"STARLINK-2504","RA_OF_ASC_NODE":"108.8104","INCLINATION":"53.0547","APOAPSIS":"548.596","ARG_OF_PERICENTER":"83.4644","MEAN_ELEMENT_THEORY":"SGP4","TLE_LINE1":"1 48328U 21036BE  21289.22636662 -.00000003  00000-0  18693-4 0  9997","COUNTRY_CODE":"US","MEAN_MOTION":"15.06391078","MEAN_MOTION_DOT":"-0.00000003","PERIAPSIS":"545.886","ELEMENT_SET_NO":"999","CLASSIFICATION_TYPE":"U","ECCENTRICITY":"0.00019560","EPOCH":"2021-10-16T05:25:58.075968","TLE_LINE2":"2 48328  53.0547 108.8104 0001956  83.4644 276.6567 15.06391078 26055","GP_ID":"187357810","LAUNCH_DATE":"2021-04-29","REF_FRAME":"TEME","OBJECT_TYPE":"PAYLOAD","MEAN_ANOMALY":"276.6567"},{"TIME_SYSTEM":"UTC","EPHEMERIS_TYPE":"0","RCS_SIZE":"LARGE","REV_AT_EPOCH":"2605","NORAD_CAT_ID":"48329","MEAN_MOTION_DDOT":"0.0000000000000","FILE":"3166610","SEMIMAJOR_AXIS":"6925.356","BSTAR":"-0.00018655000000","OBJECT_ID":"2021-036BF","SITE":"AFETR","CENTER_NAME":"EARTH","RA_OF_ASC_NODE":"108.8309","INCLINATION":"53.0553","OBJECT_NAME":"STARLINK-2510","PERIOD":"95.592","DECAY_DATE":null,"MEAN_MOTION":"15.06397509","TLE_LINE1":"1 48329U 21036BF  21289.22269035 -.00003059  00000-0 -18655-3 0  9996","COUNTRY_CODE":"US","ARG_OF_PERICENTER":"88.7827","MEAN_ELEMENT_THEORY":"SGP4","APOAPSIS":"548.487","PERIAPSIS":"545.955","MEAN_MOTION_DOT":"-0.00003059","EPOCH":"2021-10-16T05:20:40.446240","TLE_LINE2":"2 48329  53.0553 108.8309 0001828  88.7827 271.3372 15.06397509 26050","GP_ID":"187356558","ECCENTRICITY":"0.00018280","CLASSIFICATION_TYPE":"U","ELEMENT_SET_NO":"999","REF_FRAME":"TEME","OBJECT_TYPE":"PAYLOAD","MEAN_ANOMALY":"271.3372","LAUNCH_DATE":"2021-04-29"},{"OBJECT_NAME":"STARLINK-2501","PERIOD":"95.593","RA_OF_ASC_NODE":"108.8533","INCLINATION":"53.0555","DECAY_DATE":null,"BSTAR":"-0.00000941380000","SITE":"AFETR","CENTER_NAME":"EARTH","OBJECT_ID":"2021-036BG","MEAN_MOTION_DDOT":"0.0000000000000","REV_AT_EPOCH":"2605","NORAD_CAT_ID":"48330","SEMIMAJOR_AXIS":"6925.395","FILE":"3166610","TIME_SYSTEM":"UTC","EPHEMERIS_TYPE":"0","RCS_SIZE":"LARGE","REF_FRAME":"TEME","MEAN_ANOMALY":"285.9805","OBJECT_TYPE":"PAYLOAD","LAUNCH_DATE":"2021-04-29","ECCENTRICITY":"0.00017230","EPOCH":"2021-10-16T05:15:22.568544","TLE_LINE2":"2 48330  53.0555 108.8533 0001723  74.1374 285.9805 15.06384822 26059","GP_ID":"187357308","ELEMENT_SET_NO":"999","CLASSIFICATION_TYPE":"U","PERIAPSIS":"546.067","MEAN_MOTION_DOT":"-0.00000422","COUNTRY_CODE":"US","TLE_LINE1":"1 48330U 21036BG  21289.21901121 -.00000422  00000-0 -94138-5 0  9999","MEAN_MOTION":"15.06384822","APOAPSIS":"548.453","ARG_OF_PERICENTER":"74.1374","MEAN_ELEMENT_THEORY":"SGP4"},{"APOAPSIS":"548.367","ARG_OF_PERICENTER":"97.1980","MEAN_ELEMENT_THEORY":"SGP4","TLE_LINE1":"1 48331U 21036BH  21289.48070987  .00006094  00000-0  42805-3 0  9997","COUNTRY_CODE":"US","MEAN_MOTION":"15.06364702","MEAN_MOTION_DOT":"0.00006094","PERIAPSIS":"546.277","CLASSIFICATION_TYPE":"U","ELEMENT_SET_NO":"999","ECCENTRICITY":"0.00015090","GP_ID":"187330182","TLE_LINE2":"2 48331  53.0552 107.6729 0001509  97.1980 262.9180 15.06364702 26686","EPOCH":"2021-10-16T11:32:13.332768","LAUNCH_DATE":"2021-04-29","MEAN_ANOMALY":"262.9180","OBJECT_TYPE":"PAYLOAD","REF_FRAME":"TEME","RCS_SIZE":"LARGE","EPHEMERIS_TYPE":"0","TIME_SYSTEM":"UTC","SEMIMAJOR_AXIS":"6925.457","FILE":"3166335","MEAN_MOTION_DDOT":"0.0000000000000","NORAD_CAT_ID":"48331","REV_AT_EPOCH":"2668","CENTER_NAME":"EARTH","SITE":"AFETR","OBJECT_ID":"2021-036BH","BSTAR":"0.00042805000000","DECAY_DATE":null,"PERIOD":"95.594","OBJECT_NAME":"STARLINK-2514","INCLINATION":"53.0552","RA_OF_ASC_NODE":"107.6729"},{"RCS_SIZE":"LARGE","EPHEMERIS_TYPE":"0","TIME_SYSTEM":"UTC","FILE":"3166151","SEMIMAJOR_AXIS":"6925.354","REV_AT_EPOCH":"2602","NORAD_CAT_ID":"48332","MEAN_MOTION_DDOT":"0.0000000000000","OBJECT_ID":"2021-036BJ","SITE":"AFETR","CENTER_NAME":"EARTH","BSTAR":"-0.00001811900000","DECAY_DATE":null,"RA_OF_ASC_NODE":"109.7750","INCLINATION":"53.0549","PERIOD":"95.592","OBJECT_NAME":"STARLINK-2511","ARG_OF_PERICENTER":"83.9877","MEAN_ELEMENT_THEORY":"SGP4","APOAPSIS":"548.590","MEAN_MOTION":"15.06398221","TLE_LINE1":"1 48332U 21036BJ  21289.01259349 -.00000552  00000-0 -18119-4 0  9995","COUNTRY_CODE":"US","MEAN_MOTION_DOT":"-0.00000552","PERIAPSIS":"545.848","ELEMENT_SET_NO":"999","CLASSIFICATION_TYPE":"U","EPOCH":"2021-10-16T00:18:08.077536","TLE_LINE2":"2 48332  53.0549 109.7750 0001979  83.9877 276.1337 15.06398221 26021","GP_ID":"187325785","ECCENTRICITY":"0.00019790","LAUNCH_DATE":"2021-04-29","REF_FRAME":"TEME","OBJECT_TYPE":"PAYLOAD","MEAN_ANOMALY":"276.1337"},{"ECCENTRICITY":"0.00017610","EPOCH":"2021-10-16T04:59:27.032064","TLE_LINE2":"2 48333  53.0575 108.9118 0001761  74.0738 286.0445 15.06379939 26054","GP_ID":"187357058","ELEMENT_SET_NO":"999","CLASSIFICATION_TYPE":"U","REF_FRAME":"TEME","OBJECT_TYPE":"PAYLOAD","MEAN_ANOMALY":"286.0445","LAUNCH_DATE":"2021-04-29","COUNTRY_CODE":"US","TLE_LINE1":"1 48333U 21036BK  21289.20795176 -.00000463  00000-0 -12175-4 0  9997","MEAN_MOTION":"15.06379939","APOAPSIS":"548.495","MEAN_ELEMENT_THEORY":"SGP4","ARG_OF_PERICENTER":"74.0738","PERIAPSIS":"546.055","MEAN_MOTION_DOT":"-0.00000463","BSTAR":"-0.00001217500000","SITE":"AFETR","CENTER_NAME":"EARTH","OBJECT_ID":"2021-036BK","OBJECT_NAME":"STARLINK-2518","PERIOD":"95.593","RA_OF_ASC_NODE":"108.9118","INCLINATION":"53.0575","DECAY_DATE":null,"TIME_SYSTEM":"UTC","RCS_SIZE":"LARGE","EPHEMERIS_TYPE":"0","MEAN_MOTION_DDOT":"0.0000000000000","REV_AT_EPOCH":"2605","NORAD_CAT_ID":"48333","SEMIMAJOR_AXIS":"6925.410","FILE":"3166610"},{"PERIAPSIS":"545.951","MEAN_MOTION_DOT":"-0.00000702","MEAN_MOTION":"15.06386356","TLE_LINE1":"1 48334U 21036BL  21289.20425591 -.00000702  00000-0 -28247-4 0  9992","COUNTRY_CODE":"US","MEAN_ELEMENT_THEORY":"SGP4","ARG_OF_PERICENTER":"86.0394","APOAPSIS":"548.560","MEAN_ANOMALY":"274.0810","OBJECT_TYPE":"PAYLOAD","REF_FRAME":"TEME","LAUNCH_DATE":"2021-04-29","TLE_LINE2":"2 48334  53.0575 108.9285 0001884  86.0394 274.0810 15.06386356 26051","GP_ID":"187356809","EPOCH":"2021-10-16T04:54:07.710624","ECCENTRICITY":"0.00018840","ELEMENT_SET_NO":"999","CLASSIFICATION_TYPE":"U","NORAD_CAT_ID":"48334","REV_AT_EPOCH":"2605","MEAN_MOTION_DDOT":"0.0000000000000","FILE":"3166610","SEMIMAJOR_AXIS":"6925.390","TIME_SYSTEM":"UTC","RCS_SIZE":"LARGE","EPHEMERIS_TYPE":"0","INCLINATION":"53.0575","RA_OF_ASC_NODE":"108.9285","PERIOD":"95.593","OBJECT_NAME":"STARLINK-2470","DECAY_DATE":null,"BSTAR":"-0.00002824700000","OBJECT_ID":"2021-036BL","SITE":"AFETR","CENTER_NAME":"EARTH"},{"OBJECT_ID":"2021-036BM","SITE":"AFETR","CENTER_NAME":"EARTH","BSTAR":"-0.00004214300000","DECAY_DATE":null,"INCLINATION":"53.0566","RA_OF_ASC_NODE":"108.9417","PERIOD":"95.593","OBJECT_NAME":"STARLINK-2441","EPHEMERIS_TYPE":"0","RCS_SIZE":"LARGE","TIME_SYSTEM":"UTC","FILE":"3166610","SEMIMAJOR_AXIS":"6925.374","NORAD_CAT_ID":"48335","REV_AT_EPOCH":"2605","MEAN_MOTION_DDOT":"0.0000000000000","CLASSIFICATION_TYPE":"U","ELEMENT_SET_NO":"999","TLE_LINE2":"2 48335  53.0566 108.9417 0001673  72.4272 287.6900 15.06391539 26058","GP_ID":"187358060","EPOCH":"2021-10-16T04:48:49.320576","ECCENTRICITY":"0.00016730","LAUNCH_DATE":"2021-04-29","MEAN_ANOMALY":"287.6900","OBJECT_TYPE":"PAYLOAD","REF_FRAME":"TEME","MEAN_ELEMENT_THEORY":"SGP4","ARG_OF_PERICENTER":"72.4272","APOAPSIS":"548.398","MEAN_MOTION":"15.06391539","TLE_LINE1":"1 48335U 21036BM  21289.20057084 -.00000909  00000-0 -42143-4 0  9991","COUNTRY_CODE":"US","MEAN_MOTION_DOT":"-0.00000909","PERIAPSIS":"546.081"}];
